CAS-2T & KS-1Q          
1 41847U 16066G   20361.16878049  .00000126  00000-0  29191-4 0  9993
2 41847  98.6289  53.3496 0365801  17.6304 343.7197 14.38130055216971
NAYIF-1 (EO-88)         
1 42017U 17008BX  20361.44669978  .00002789  00000-0  10707-3 0  9999
2 42017  97.3399  66.0440 0006307  18.1556 341.9907 15.27272136214846
ZHUHAI-1 02 (CAS-4B)    
1 42759U 17034B   20361.44861528  .00000673  00000-0  54041-4 0  9996
2 42759  43.0190  52.0570 0009103 166.8000 207.7837 15.10016804194991
ZHUHAI-1 01 (CAS-4A)    
1 42761U 17034D   20361.47042322  .00000703  00000-0  55745-4 0  9991
2 42761  43.0191  51.1092 0009488 168.0091 323.2384 15.10097250194999
MAX VALIER SAT          
1 42778U 17036P   20361.41449167  .00001653  00000-0  72902-4 0  9992
2 42778  97.2810  49.5041 0013572  69.9715 290.2982 15.23084562194940
RADFXSAT (FOX-1B)       
1 43017U 17073E   20361.31903063  .00000662  00000-0  56040-4 0  9993
2 43017  97.7171 266.0868 0256823 144.7772 217.0721 14.79227609167521
FOX-1D (AO-92)          
1 43137U 18004AC  20360.83900591  .00002233  00000-0  93253-4 0  9993
2 43137  97.4279  70.5409 0010629 101.4662 258.7769 15.24650433164201
DIWATA-2B               
1 43678U 18084H   20361.32554200  .00000315  00000-0  37082-4 0  9995
2 43678  97.9035 119.9760 0008506 263.0519  96.9725 14.91692681117623
ES'HAIL 2               
1 43700U 18090A   20360.92966161  .00000164  00000-0  00000-0 0  9994
2 43700   0.0160  64.1747 0001771 235.9795 155.2094  1.00274013  7638
FOX-1CLIFF (AO-95)      
1 43770U 18099N   20361.12560646  .00000510  00000-0  51589-4 0  9998
2 43770  97.6870  68.9691 0013118 277.3696  82.6034 14.95147038112552
ITASAT 1                
1 43786U 18099AE  20360.74568576  .00000915  00000-0  87744-4 0  9993
2 43786  97.6892  69.1531 0013606 271.3902  88.5761 14.95465983112526
JY1SAT (JO-97)          
1 43803U 18099AX  20361.47190860  .00000908  00000-0  86707-4 0  9991
2 43803  97.6849  69.6429 0013631 268.5927  91.3732 14.95674818112633
PSAT2 (NO-104)          
1 44354U 19036R   20360.91665152  .00016214  00000-0  22590-3 0  9990
2 44354  28.5285 199.5256 0344944 201.7922 156.7669 15.08436699 82708
BRICSAT2 (NO-103)       
1 44355U 19036S   20360.86395643  .00028765  00000-0  36084-3 0  9997
2 44355  28.5281 177.4831 0305472 237.6895 119.3769 15.18620844 82927
JAISAT-1                
1 44419U 19038F   20360.89154316  .00001683  00000-0  97970-4 0  9995
2 44419  97.5654 320.5669 0020925 186.4208 173.6758 15.13241746 81547
DUCHIFAT-3              
1 44854U 19089C   20361.51589276  .00000731  00000-0  65162-4 0  9992
2 44854  36.9667  43.1656 0007499 183.6609 176.4089 14.99268135 57130
RS-44 & BREEZE-KM R/B   
1 44909U 19096E   20360.90613948  .00000021  00000-0  33012-4 0  9998
2 44909  82.5210 228.0978 0218021 138.6865 223.0962 12.79707870 46678
ORBITAL FACTORY 2 (OF-2)
1 45113U 19071C   20360.84973326  .00005197  00000-0  16427-3 0  9990
2 45113  51.6407 158.3912 0012537  29.7197 330.4495 15.34449137 50500
HUSKYSAT-1              
1 45119U 19071J   20361.45618857  .00003660  00000-0  11860-3 0  9998
2 45119  51.6400 154.9397 0011882  28.6074 331.5558 15.34582444 50592
BY70-2                  
1 45857U 20042B   20361.46244649  .00001407  00000-0  20885-3 0  9996
2 45857  97.9997  72.9502 0011850  57.6928 302.5437 14.76575275 26010
SALSAT                  
1 46495U 20068K   20360.94360451  .00000473  00000-0  39383-4 0  9991
2 46495  97.6797 293.6488 0015280 304.2835  55.6941 15.03309829 13268
BY70-3                  
1 46839U 20079N   20361.55164897  .00004200  00000-0  13601-3 0  9995
2 46839  97.2603  72.8105 0009078 103.9195  10.3883 15.32529602  7717
OSCAR 7 (AO-7)          
1 07530U 74089B   20361.15093259 -.00000034  00000-0  69477-4 0  9994
2 07530 101.8301 330.0129 0012329 356.5028  14.5751 12.53646667110253
